[{"OBJECT_NAME":"DONGPO 03","OBJECT_ID":"2022-098G","EPOCH":"2026-03-09T23:33:34.890048","MEAN_MOTION":15.70958192,"ECCENTRICITY":0.00010558,"INCLINATION":97.5452,"RA_OF_ASC_NODE":197.1326,"ARG_OF_PERICENTER":261.4023,"MEAN_ANOMALY":98.7119,"EPHEMERIS_TYPE":0,"CLASSIFICATION_TYPE":"U","NORAD_CAT_ID":53450,"ELEMENT_SET_NO":999,"REV_AT_EPOCH":19946,"BSTAR":0.0010143925,"MEAN_MOTION_DOT":0.00128253,"MEAN_MOTION_DDOT":0},{"OBJECT_NAME":"STARLINK-11254 [DTC]","OBJECT_ID":"2024-152M","EPOCH":"2026-03-09T12:38:30.944256","MEAN_MOTION":15.69702375,"ECCENTRICITY":0.0001268,"INCLINATION":53.1592,"RA_OF_ASC_NODE":116.7523,"ARG_OF_PERICENTER":99.4057,"MEAN_ANOMALY":260.7104,"EPHEMERIS_TYPE":0,"CLASSIFICATION_TYPE":"U","NORAD_CAT_ID":60731,"ELEMENT_SET_NO":999,"REV_AT_EPOCH":8882,"BSTAR":5.6523e-7,"MEAN_MOTION_DOT":-5.2e-6,"MEAN_MOTION_DDOT":0}]
